[{"OBJECT_NAME":"STARLINK-4722","OBJECT_ID":"2022-111C","EPOCH":"2026-03-09T19:51:28.821888","MEAN_MOTION":15.0883877,"ECCENTRICITY":0.00013489,"INCLINATION":53.2167,"RA_OF_ASC_NODE":273.7382,"ARG_OF_PERICENTER":87.8612,"MEAN_ANOMALY":272.2534,"EPHEMERIS_TYPE":0,"CLASSIFICATION_TYPE":"U","NORAD_CAT_ID":53775,"ELEMENT_SET_NO":999,"REV_AT_EPOCH":19371,"BSTAR":4.6218133e-5,"MEAN_MOTION_DOT":4.48e-6,"MEAN_MOTION_DDOT":0},{"OBJECT_NAME":"COSMOS 2251 DEB","OBJECT_ID":"1993-036KZ","EPOCH":"2026-03-09T13:28:08.575968","MEAN_MOTION":15.07827872,"ECCENTRICITY":0.00279097,"INCLINATION":73.9949,"RA_OF_ASC_NODE":118.7357,"ARG_OF_PERICENTER":226.7607,"MEAN_ANOMALY":259.798,"EPHEMERIS_TYPE":0,"CLASSIFICATION_TYPE":"U","NORAD_CAT_ID":34128,"ELEMENT_SET_NO":999,"REV_AT_EPOCH":90472,"BSTAR":0.0021198383,"MEAN_MOTION_DOT":0.0003287,"MEAN_MOTION_DDOT":0}]
